{"fetched_at":"2026-03-30T13:17:50Z","count":15418,"tles":[{"name":"STARLINK-31186","line1":"1 59030U 24038H   26087.83498056  .00003847  00000+0  14920-3 0  9990","line2":"2 59030  42.9997 279.1128 0001030 266.8104  93.2630 15.27586066117682","category":"Starlink"}]}