{
  "norad_id": 59030,
  "name": "STARLINK-31186",
  "history": [
    {
      "epoch": "2026-03-28T20:02:22.320384Z",
      "apogee_km": 483.7381128923116,
      "perigee_km": 482.3237517347443,
      "latitude_deg": 2.2364158085346772e-05,
      "longitude_deg": 152.27009195493403,
      "height_km": 482.84662325411205,
      "semi_major_axis_km": 6861.167932313528,
      "eccentricity": 0.00010307,
      "inclination_deg": 42.9997,
      "raan_deg": 279.1128,
      "arg_perigee_deg": 266.8104,
      "mean_anomaly_deg": 93.263,
      "mean_motion_rev_day": 15.27586066
    }
  ]
}